[{"OBJECT_NAME":"OBJECT G","OBJECT_ID":"2025-155G","EPOCH":"2026-03-09T22:09:56.639808","MEAN_MOTION":15.27590702,"ECCENTRICITY":0.00081871,"INCLINATION":97.4488,"RA_OF_ASC_NODE":37.3259,"ARG_OF_PERICENTER":154.1528,"MEAN_ANOMALY":206.0122,"EPHEMERIS_TYPE":0,"CLASSIFICATION_TYPE":"U","NORAD_CAT_ID":64882,"ELEMENT_SET_NO":999,"REV_AT_EPOCH":6559,"BSTAR":0.0004792617,"MEAN_MOTION_DOT":0.00012876,"MEAN_MOTION_DDOT":0},{"OBJECT_NAME":"STARLINK-35588","OBJECT_ID":"2025-259C","EPOCH":"2026-03-09T20:14:27.208608","MEAN_MOTION":15.27589023,"ECCENTRICITY":0.00022179,"INCLINATION":43.0007,"RA_OF_ASC_NODE":273.5851,"ARG_OF_PERICENTER":275.2153,"MEAN_ANOMALY":84.8446,"EPHEMERIS_TYPE":0,"CLASSIFICATION_TYPE":"U","NORAD_CAT_ID":66424,"ELEMENT_SET_NO":999,"REV_AT_EPOCH":1951,"BSTAR":0.0011115386,"MEAN_MOTION_DOT":0.00030461,"MEAN_MOTION_DDOT":0}]
